SCD 1                   
1 22490U 93009B   26168.52087976  .00000327  00000+0  38486-4 0  9999
2 22490  24.9678 205.5170 0042067 141.2248 338.0371 14.46118916761163
TECHSAT 1B (GO-32)      
1 25397U 98043D   26168.83706287  .00000036  00000+0  35909-4 0  9992
2 25397  99.0067 161.6120 0001100 161.3661 198.7558 14.24428490451429
SCD 2                   
1 25504U 98060A   26168.17956295  .00000355  00000+0  48260-4 0  9992
2 25504  24.9954  72.2040 0016945 122.8124  10.9716 14.45525886460328
DLR-TUBSAT              
1 25757U 99029B   26168.84455297  .00000047  00000+0  23455-4 0  9995
2 25757  98.6695 164.3702 0014005 353.2295   6.8708 14.52426957433344
TERRA                   
1 25994U 99068A   26168.91590209  .00000309  00000+0  71964-4 0  9991
2 25994  97.9456 218.4333 0001636 186.9393 276.8108 14.61103628409715
MAROC-TUBSAT            
1 27004U 01056D   26168.97204574 -.00000040  00000+0  70107-5 0  9990
2 27004  99.8082 345.8463 0020354 139.2954  24.3997 13.70262480226299
AQUA                    
1 27424U 02022A   26168.94355691  .00000608  00000+0  13065-3 0  9991
2 27424  98.4277 138.2414 0001072  53.5586   6.3852 14.62159178283385
SHIYAN-1 (SY-1)         
1 28220U 04012A   26168.77077831  .00011053  00000+0  34083-3 0  9994
2 28220  97.8690 246.8770 0005534  30.8404 329.3161 15.33772714211183
AURA                    
1 28376U 04026A   26168.87622999  .00000612  00000+0  13360-3 0  9997
2 28376  98.3417 125.3352 0001206  75.8546 284.2788 14.61330063166318
IRS-P5 (CARTOSAT-1)     
1 28649U 05017A   26168.81649177  .00001221  00000+0  12869-3 0  9992
2 28649  97.5307 191.8524 0002557  79.1721 280.9786 14.91050998143912
SINAH 1                 
1 28893U 05043D   26168.94256918  .00000237  00000+0  54535-4 0  9996
2 28893  98.2862 303.2690 0013125 274.1990  85.7712 14.64158095100637
RESURS-DK 1             
1 29228U 06021A   26168.89470233  .00001805  00000+0  10744-3 0  9993
2 29228  69.9330 337.7217 0006881 291.3042  68.7389 15.13220954102689
ARIRANG-2 (KOMPSAT-2)   
1 29268U 06031A   26168.99492248  .00000585  00000+0  11823-3 0  9992
2 29268  97.8301 353.4022 0015930  72.1667  88.5989 14.64661917 61596
LAPAN-TUBSAT            
1 29709U 07001A   26168.99506922 -.00000283  00000+0 -25771-4 0  9990
2 29709  98.1337 168.2371 0011932 176.7595 183.3699 14.85948421 51274
HAIYANG-1B              
1 31113U 07010A   26168.91392912  .00000072  00000+0  43338-4 0  9999
2 31113  98.3495 150.7309 0013061 194.0963 165.9858 14.31027083   749
COSMO-SKYMED 1          
1 31598U 07023A   26168.93705637  .00002242  00000+0  19952-3 0  9999
2 31598  97.8848   0.7989 0001350  98.3614 261.7760 14.97102534 29900
TERRASAR-X              
1 31698U 07026A   26168.58693640  .00000280  00000+0  16539-4 0  9993
2 31698  97.4452 176.2866 0001560  90.2646 269.8767 15.19150392 53284
WORLDVIEW-1 (WV-1)      
1 32060U 07041A   26168.94854220  .00004952  00000+0  20572-3 0  9998
2 32060  97.3882 288.6809 0002180  19.5093 340.6227 15.24273981 42999
YAOGAN-3                
1 32289U 07055A   26168.99991514  .00000736  00000+0  80517-4 0  9991
2 32289  97.8147 198.8693 0001881  80.1173 280.0257 14.90782166  5995
COSMO-SKYMED 2          
1 32376U 07059A   26168.97117279  .00000299  00000+0  44108-4 0  9998
2 32376  97.8886 352.5577 0001345  87.9513 272.1854 14.82155580  2122
RADARSAT-2              
1 32382U 07061A   26168.94743472 -.00000241  00000+0 -76421-4 0  9997
2 32382  98.5770 175.8689 0001284  83.9531 276.1798 14.29981074966066
CARTOSAT-2A             
1 32783U 08021A   26168.92589128  .00000300  00000+0  47124-4 0  9995
2 32783  97.7630 217.6092 0013218 106.5246 253.7419 14.79239310978917
HUANJING 1A (HJ-1A)     
1 33320U 08041A   26168.97545664  .00000823  00000+0  10475-3 0  9995
2 33320  97.6677 154.7831 0019998 132.3724 227.9188 14.83986592958523
HUANJING 1B (HJ-1B)     
1 33321U 08041B   26168.94488485  .00000969  00000+0  12333-3 0  9996
2 33321  97.6514 157.9234 0036127 178.3753 181.7585 14.83319529958529
GEOEYE 1                
1 33331U 08042A   26168.90335145  .00000360  00000+0  76537-4 0  9990
2 33331  98.1236 242.8256 0005378  67.9105 292.2669 14.64726327950253
THEOS                   
1 33396U 08049A   26168.95524284 -.00000287  00000+0 -11480-3 0  9992
2 33396  98.5569 226.2139 0001240  78.8342 281.2974 14.20132034918070
COSMO-SKYMED 3          
1 33412U 08054A   26168.93996407  .00002412  00000+0  16539-3 0  9995
2 33412  97.8281  27.5227 0014095 264.1678  95.7942 15.06957876957054
YAOGAN-4                
1 33446U 08061A   26168.77426434  .00000774  00000+0  10121-3 0  9990
2 33446  97.9308 102.2802 0015698  70.6911 289.5998 14.83201079945751
GOSAT (IBUKI)           
1 33492U 09002A   26168.88836030  .00000908  00000+0  16858-3 0  9998
2 33492  98.0892 279.9605 0001461  83.2330 276.9041 14.67540412931565
DEIMOS-1                
1 35681U 09041A   26168.93246907  .00000274  00000+0  47493-4 0  9993
2 35681  97.7401 326.1272 0001676 129.8552 230.2806 14.75237345906993
